[
  {
    "COMMENT": "GENERATED VIA SPACETRACK.ORG API",
    "ORIGINATOR": "18 SPCS",
    "NORAD_CAT_ID": "46984",
    "OBJECT_NAME": "S6 MICHAEL FREILICH",
    "OBJECT_TYPE": "PAYLOAD",
    "CLASSIFICATION_TYPE": "U",
    "INTLDES": "20086A",
    "EPOCH": "2021-10-30 14:02:57",
    "EPOCH_MICROSECONDS": "302016",
    "MEAN_MOTION": "12.80930562",
    "ECCENTRICITY": "0.0007755",
    "INCLINATION": "66.0444",
    "RA_OF_ASC_NODE": "46.4692",
    "ARG_OF_PERICENTER": "262.9176",
    "MEAN_ANOMALY": "97.095",
    "EPHEMERIS_TYPE": "0",
    "ELEMENT_SET_NO": "999",
    "REV_AT_EPOCH": "4392",
    "BSTAR": "0",
    "MEAN_MOTION_DOT": "-0.00000061",
    "MEAN_MOTION_DDOT": "0",
    "FILE": "3192846",
    "TLE_LINE0": "0 S6 MICHAEL FREILICH",
    "TLE_LINE1": "1 46984U 20086A   21303.58538544 -.00000061  00000-0  00000+0 0  9995",
    "TLE_LINE2": "2 46984  66.0444  46.4692 0007755 262.9176  97.0950 12.80930562 43929",
    "OBJECT_ID": "2020-086A",
    "OBJECT_NUMBER": "46984",
    "SEMIMAJOR_AXIS": "7715.868",
    "PERIOD": "112.418",
    "APOGEE": "1343.717",
    "PERIGEE": "1331.749",
    "DECAYED": "0"
  },
  {
    "COMMENT": "GENERATED VIA SPACETRACK.ORG API",
    "ORIGINATOR": "18 SPCS",
    "NORAD_CAT_ID": "46984",
    "OBJECT_NAME": "S6 MICHAEL FREILICH",
    "OBJECT_TYPE": "PAYLOAD",
    "CLASSIFICATION_TYPE": "U",
    "INTLDES": "20086A",
    "EPOCH": "2021-10-30 14:02:57",
    "EPOCH_MICROSECONDS": "302016",
    "MEAN_MOTION": "12.80930562",
    "ECCENTRICITY": "0.0007755",
    "INCLINATION": "66.0444",
    "RA_OF_ASC_NODE": "46.4692",
    "ARG_OF_PERICENTER": "262.9176",
    "MEAN_ANOMALY": "97.095",
    "EPHEMERIS_TYPE": "0",
    "ELEMENT_SET_NO": "999",
    "REV_AT_EPOCH": "4392",
    "BSTAR": "0",
    "MEAN_MOTION_DOT": "-0.00000061",
    "MEAN_MOTION_DDOT": "0",
    "FILE": "3192905",
    "TLE_LINE0": "0 S6 MICHAEL FREILICH",
    "TLE_LINE1": "1 46984U 20086A   21303.58538544 -.00000061  00000-0  00000-0 0  9996",
    "TLE_LINE2": "2 46984  66.0444  46.4692 0007755 262.9176  97.0950 12.80930562 43929",
    "OBJECT_ID": "2020-086A",
    "OBJECT_NUMBER": "46984",
    "SEMIMAJOR_AXIS": "7715.868",
    "PERIOD": "112.418",
    "APOGEE": "1343.717",
    "PERIGEE": "1331.749",
    "DECAYED": "0"
  },
  {
    "COMMENT": "GENERATED VIA SPACETRACK.ORG API",
    "ORIGINATOR": "18 SPCS",
    "NORAD_CAT_ID": "46984",
    "OBJECT_NAME": "S6 MICHAEL FREILICH",
    "OBJECT_TYPE": "PAYLOAD",
    "CLASSIFICATION_TYPE": "U",
    "INTLDES": "20086A",
    "EPOCH": "2021-10-31 12:32:06",
    "EPOCH_MICROSECONDS": "429696",
    "MEAN_MOTION": "12.8093057",
    "ECCENTRICITY": "0.0007755",
    "INCLINATION": "66.0446",
    "RA_OF_ASC_NODE": "44.5238",
    "ARG_OF_PERICENTER": "262.4715",
    "MEAN_ANOMALY": "97.5422",
    "EPHEMERIS_TYPE": "0",
    "ELEMENT_SET_NO": "999",
    "REV_AT_EPOCH": "4404",
    "BSTAR": "0",
    "MEAN_MOTION_DOT": "-0.00000061",
    "MEAN_MOTION_DDOT": "0",
    "FILE": "3194420",
    "TLE_LINE0": "0 S6 MICHAEL FREILICH",
    "TLE_LINE1": "1 46984U 20086A   21304.52229664 -.00000061  00000-0  00000+0 0  9990",
    "TLE_LINE2": "2 46984  66.0446  44.5238 0007755 262.4715  97.5422 12.80930570 44042",
    "OBJECT_ID": "2020-086A",
    "OBJECT_NUMBER": "46984",
    "SEMIMAJOR_AXIS": "7715.868",
    "PERIOD": "112.418",
    "APOGEE": "1343.717",
    "PERIGEE": "1331.749",
    "DECAYED": "0"
  },
  {
    "COMMENT": "GENERATED VIA SPACETRACK.ORG API",
    "ORIGINATOR": "18 SPCS",
    "NORAD_CAT_ID": "46984",
    "OBJECT_NAME": "S6 MICHAEL FREILICH",
    "OBJECT_TYPE": "PAYLOAD",
    "CLASSIFICATION_TYPE": "U",
    "INTLDES": "20086A",
    "EPOCH": "2021-10-31 12:32:06",
    "EPOCH_MICROSECONDS": "429696",
    "MEAN_MOTION": "12.8093057",
    "ECCENTRICITY": "0.0007755",
    "INCLINATION": "66.0446",
    "RA_OF_ASC_NODE": "44.5238",
    "ARG_OF_PERICENTER": "262.4715",
    "MEAN_ANOMALY": "97.5422",
    "EPHEMERIS_TYPE": "0",
    "ELEMENT_SET_NO": "999",
    "REV_AT_EPOCH": "4404",
    "BSTAR": "0",
    "MEAN_MOTION_DOT": "-0.00000061",
    "MEAN_MOTION_DDOT": "0",
    "FILE": "3194424",
    "TLE_LINE0": "0 S6 MICHAEL FREILICH",
    "TLE_LINE1": "1 46984U 20086A   21304.52229664 -.00000061  00000-0  00000+0 0  9990",
    "TLE_LINE2": "2 46984  66.0446  44.5238 0007755 262.4715  97.5422 12.80930570 44042",
    "OBJECT_ID": "2020-086A",
    "OBJECT_NUMBER": "46984",
    "SEMIMAJOR_AXIS": "7715.868",
    "PERIOD": "112.418",
    "APOGEE": "1343.717",
    "PERIGEE": "1331.749",
    "DECAYED": "0"
  },
  {
    "COMMENT": "GENERATED VIA SPACETRACK.ORG API",
    "ORIGINATOR": "18 SPCS",
    "NORAD_CAT_ID": "46984",
    "OBJECT_NAME": "S6 MICHAEL FREILICH",
    "OBJECT_TYPE": "PAYLOAD",
    "CLASSIFICATION_TYPE": "U",
    "INTLDES": "20086A",
    "EPOCH": "2021-11-01 12:53:41",
    "EPOCH_MICROSECONDS": "303040",
    "MEAN_MOTION": "12.80930563",
    "ECCENTRICITY": "0.0007804",
    "INCLINATION": "66.0448",
    "RA_OF_ASC_NODE": "42.4158",
    "ARG_OF_PERICENTER": "262.8749",
    "MEAN_ANOMALY": "97.138",
    "EPHEMERIS_TYPE": "0",
    "ELEMENT_SET_NO": "999",
    "REV_AT_EPOCH": "4417",
    "BSTAR": "0",
    "MEAN_MOTION_DOT": "-0.00000061",
    "MEAN_MOTION_DDOT": "0",
    "FILE": "3196202",
    "TLE_LINE0": "0 S6 MICHAEL FREILICH",
    "TLE_LINE1": "1 46984U 20086A   21305.53728360 -.00000061  00000-0  00000+0 0  9999",
    "TLE_LINE2": "2 46984  66.0448  42.4158 0007804 262.8749  97.1380 12.80930563 44173",
    "OBJECT_ID": "2020-086A",
    "OBJECT_NUMBER": "46984",
    "SEMIMAJOR_AXIS": "7715.868",
    "PERIOD": "112.418",
    "APOGEE": "1343.754",
    "PERIGEE": "1331.711",
    "DECAYED": "0"
  },
  {
    "COMMENT": "GENERATED VIA SPACETRACK.ORG API",
    "ORIGINATOR": "18 SPCS",
    "NORAD_CAT_ID": "46984",
    "OBJECT_NAME": "S6 MICHAEL FREILICH",
    "OBJECT_TYPE": "PAYLOAD",
    "CLASSIFICATION_TYPE": "U",
    "INTLDES": "20086A",
    "EPOCH": "2021-11-01 12:53:41",
    "EPOCH_MICROSECONDS": "303040",
    "MEAN_MOTION": "12.80930563",
    "ECCENTRICITY": "0.0007804",
    "INCLINATION": "66.0448",
    "RA_OF_ASC_NODE": "42.4158",
    "ARG_OF_PERICENTER": "262.8749",
    "MEAN_ANOMALY": "97.138",
    "EPHEMERIS_TYPE": "0",
    "ELEMENT_SET_NO": "999",
    "REV_AT_EPOCH": "4417",
    "BSTAR": "0",
    "MEAN_MOTION_DOT": "-0.00000061",
    "MEAN_MOTION_DDOT": "0",
    "FILE": "3196301",
    "TLE_LINE0": "0 S6 MICHAEL FREILICH",
    "TLE_LINE1": "1 46984U 20086A   21305.53728360 -.00000061  00000-0  00000-0 0  9990",
    "TLE_LINE2": "2 46984  66.0448  42.4158 0007804 262.8749  97.1380 12.80930563 44173",
    "OBJECT_ID": "2020-086A",
    "OBJECT_NUMBER": "46984",
    "SEMIMAJOR_AXIS": "7715.868",
    "PERIOD": "112.418",
    "APOGEE": "1343.754",
    "PERIGEE": "1331.711",
    "DECAYED": "0"
  },
  {
    "COMMENT": "GENERATED VIA SPACETRACK.ORG API",
    "ORIGINATOR": "18 SPCS",
    "NORAD_CAT_ID": "46984",
    "OBJECT_NAME": "S6 MICHAEL FREILICH",
    "OBJECT_TYPE": "PAYLOAD",
    "CLASSIFICATION_TYPE": "U",
    "INTLDES": "20086A",
    "EPOCH": "2021-11-01 16:38:32",
    "EPOCH_MICROSECONDS": "819424",
    "MEAN_MOTION": "12.80930551",
    "ECCENTRICITY": "0.0007807",
    "INCLINATION": "66.0448",
    "RA_OF_ASC_NODE": "42.0914",
    "ARG_OF_PERICENTER": "262.9398",
    "MEAN_ANOMALY": "97.0727",
    "EPHEMERIS_TYPE": "0",
    "ELEMENT_SET_NO": "999",
    "REV_AT_EPOCH": "4419",
    "BSTAR": "0",
    "MEAN_MOTION_DOT": "-0.00000061",
    "MEAN_MOTION_DDOT": "0",
    "FILE": "3196809",
    "TLE_LINE0": "0 S6 MICHAEL FREILICH",
    "TLE_LINE1": "1 46984U 20086A   21305.69343541 -.00000061  00000-0  00000+0 0  9990",
    "TLE_LINE2": "2 46984  66.0448  42.0914 0007807 262.9398  97.0727 12.80930551 44196",
    "OBJECT_ID": "2020-086A",
    "OBJECT_NUMBER": "46984",
    "SEMIMAJOR_AXIS": "7715.868",
    "PERIOD": "112.418",
    "APOGEE": "1343.757",
    "PERIGEE": "1331.709",
    "DECAYED": "0"
  },
  {
    "COMMENT": "GENERATED VIA SPACETRACK.ORG API",
    "ORIGINATOR": "18 SPCS",
    "NORAD_CAT_ID": "46984",
    "OBJECT_NAME": "S6 MICHAEL FREILICH",
    "OBJECT_TYPE": "PAYLOAD",
    "CLASSIFICATION_TYPE": "U",
    "INTLDES": "20086A",
    "EPOCH": "2021-11-01 16:38:32",
    "EPOCH_MICROSECONDS": "819424",
    "MEAN_MOTION": "12.80930551",
    "ECCENTRICITY": "0.0007807",
    "INCLINATION": "66.0448",
    "RA_OF_ASC_NODE": "42.0914",
    "ARG_OF_PERICENTER": "262.9398",
    "MEAN_ANOMALY": "97.0727",
    "EPHEMERIS_TYPE": "0",
    "ELEMENT_SET_NO": "999",
    "REV_AT_EPOCH": "4419",
    "BSTAR": "0",
    "MEAN_MOTION_DOT": "-0.00000061",
    "MEAN_MOTION_DDOT": "0",
    "FILE": "3196814",
    "TLE_LINE0": "0 S6 MICHAEL FREILICH",
    "TLE_LINE1": "1 46984U 20086A   21305.69343541 -.00000061  00000-0  00000+0 0  9990",
    "TLE_LINE2": "2 46984  66.0448  42.0914 0007807 262.9398  97.0727 12.80930551 44196",
    "OBJECT_ID": "2020-086A",
    "OBJECT_NUMBER": "46984",
    "SEMIMAJOR_AXIS": "7715.868",
    "PERIOD": "112.418",
    "APOGEE": "1343.757",
    "PERIGEE": "1331.709",
    "DECAYED": "0"
  }
]